NORAD_CAT_ID,OBJECT_NAME,OBJECT_TYPE,EPOCH,MEAN_MOTION,ECCENTRICITY,INCLINATION,RA_OF_ASC_NODE,ARG_OF_PERICENTER,MEAN_ANOMALY,BSTAR,MEAN_MOTION_DOT,MEAN_MOTION_DDOT,TLE_LINE0,TLE_LINE1,TLE_LINE2,SEMIMAJOR_AXIS,PERIOD,APOGEE,PERIGEE,DECAYED
53544.0,STARLINK-4303,PAYLOAD,2023-04-06 12:01:32,15.08843231,0.0001608,53.2163,179.4069,76.5012,283.6159,0.00011879,1.603e-05,0.0,0 STARLINK-4303,1 53544U 22101T   23096.50107569  .00001603  00000-0  11879-3 0  9999,2 53544  53.2163 179.4069 0001608  76.5012 283.6159 15.08843231 35710,6917.871,95.437,540.848,538.623,0.0
53544.0,STARLINK-4303,PAYLOAD,2023-04-06 15:12:19,15.08845302,0.0001556,53.2156,178.8109,82.1383,277.9786,0.00013548,1.869e-05,0.0,0 STARLINK-4303,1 53544U 22101T   23096.63355381  .00001869  00000-0  13548-3 0  9999,2 53544  53.2156 178.8109 0001556  82.1383 277.9786 15.08845302 35067,6917.864,95.437,540.806,538.653,0.0
53544.0,STARLINK-4303,PAYLOAD,2023-04-07 11:52:19,15.08844161,0.0001464,53.216,174.9443,87.5,272.616,9.6615e-05,1.25e-05,0.0,0 STARLINK-4303,1 53544U 22101T   23097.49467190  .00001250  00000-0  96615-4 0  9997,2 53544  53.2160 174.9443 0001464  87.5000 272.6160 15.08844161 35861,6917.868,95.437,540.745,538.72,0.0
53544.0,STARLINK-4303,PAYLOAD,2023-04-08 05:21:34,15.0883325,0.0001468,53.2162,171.6752,83.2989,276.817,1.946e-05,2.2e-07,0.0,0 STARLINK-4303,1 53544U 22101T   23098.22332057  .00000022  00000-0  19460-4 0  9991,2 53544  53.2162 171.6752 0001468  83.2989 276.8170 15.08833250 35306,6917.901,95.438,540.782,538.75,0.0
53544.0,STARLINK-4303,PAYLOAD,2023-04-08 10:07:44,15.08835847,0.0001482,53.2168,170.784,79.4821,280.6338,4.3086e-05,3.98e-06,0.0,0 STARLINK-4303,1 53544U 22101T   23098.42203914  .00000398  00000-0  43086-4 0  9999,2 53544  53.2168 170.7840 0001482  79.4821 280.6338 15.08835847 36009,6917.893,95.438,540.783,538.733,0.0
53544.0,STARLINK-4303,PAYLOAD,2023-04-09 09:58:31,15.08839584,0.0001465,53.2173,166.3233,91.0629,269.0531,6.5966e-05,7.62e-06,0.0,0 STARLINK-4303,1 53544U 22101T   23099.41563667  .00000762  00000-0  65966-4 0  9999,2 53544  53.2173 166.3233 0001465  91.0629 269.0531 15.08839584 35488,6917.882,95.438,540.76,538.733,0.0
53544.0,STARLINK-4303,PAYLOAD,2023-04-09 21:06:12,15.08840924,0.0001503,53.2174,164.2413,83.2631,276.8532,5.9493e-05,6.59e-06,0.0,0 STARLINK-4303,1 53544U 22101T   23099.87931670  .00000659  00000-0  59493-4 0  9995,2 53544  53.2174 164.2413 0001503  83.2631 276.8532 15.08840924 36225,6917.878,95.437,540.782,538.703,0.0
53544.0,STARLINK-4303,PAYLOAD,2023-04-10 05:03:09,15.08824444,0.0001296,53.2183,162.755,99.8333,260.2806,0.00029671,4.435e-05,0.0,0 STARLINK-4303,1 53544U 22101T   23100.21052391  .00004435  00000-0  29671-3 0  9990,2 53544  53.2183 162.7550 0001296  99.8333 260.2806 15.08824444 35602,6917.928,95.439,540.69,538.896,0.0
53544.0,STARLINK-4303,PAYLOAD,2023-04-10 13:00:04,15.08842842,0.0001548,53.2187,161.2683,103.4476,256.6688,0.00013036,1.787e-05,0.0,0 STARLINK-4303,1 53544U 22101T   23100.54171471  .00001787  00000-0  13036-3 0  9992,2 53544  53.2187 161.2683 0001548 103.4476 256.6688 15.08842842 35651,6917.872,95.437,540.808,538.666,0.0
53544.0,STARLINK-4303,PAYLOAD,2023-04-10 20:57:00,15.0884049,0.0001665,53.218,159.7818,88.8902,271.2281,9.9847e-05,1.301e-05,0.0,0 STARLINK-4303,1 53544U 22101T   23100.87291761  .00001301  00000-0  99847-4 0  9990,2 53544  53.2180 159.7818 0001665  88.8902 271.2281 15.08840490 36375,6917.879,95.438,540.896,538.592,0.0
53544.0,STARLINK-4303,PAYLOAD,2023-04-11 11:15:27,15.0884685,0.0001508,53.2187,157.1053,94.3194,265.797,0.00011563,1.553e-05,0.0,0 STARLINK-4303,1 53544U 22101T   23101.46907166  .00001553  00000-0  11563-3 0  9996,2 53544  53.2187 157.1053 0001508  94.3194 265.7970 15.08846850 36465,6917.859,95.437,540.768,538.681,0.0
53544.0,STARLINK-4303,PAYLOAD,2023-04-11 20:47:46,15.0884189,0.0001421,53.2179,155.3213,93.4378,266.6777,8.119e-05,1.004e-05,0.0,0 STARLINK-4303,1 53544U 22101T   23101.86651458  .00001004  00000-0  81190-4 0  9995,2 53544  53.2179 155.3213 0001421  93.4378 266.6777 15.08841890 36523,6917.875,95.437,540.723,538.757,0.0
53544.0,STARLINK-4303,PAYLOAD,2023-04-12 03:09:19,15.08838197,0.0001427,53.2181,154.1325,92.7791,267.3365,6.372e-05,7.26e-06,0.0,0 STARLINK-4303,1 53544U 22101T   23102.13147749  .00000726  00000-0  63720-4 0  9998,2 53544  53.2181 154.1325 0001427  92.7791 267.3365 15.08838197 35890,6917.886,95.438,540.738,538.764,0.0
53544.0,STARLINK-4303,PAYLOAD,2023-04-12 11:06:15,15.08838107,0.0001254,53.2174,152.645,83.9623,276.1512,5.2546e-06,-2.04e-06,0.0,0 STARLINK-4303,1 53544U 22101T   23102.46267904 -.00000204  00000-0  52546-5 0  9997,2 53544  53.2174 152.6450 0001254  83.9623 276.1512 15.08838107 36612,6917.886,95.438,540.619,538.884,0.0
53544.0,STARLINK-4303,PAYLOAD,2023-04-13 09:21:39,15.08840614,0.0001336,53.2162,148.4802,88.3952,271.7193,-8.4611e-06,-4.23e-06,0.0,0 STARLINK-4303,1 53544U 22101T   23103.39003908 -.00000423  00000-0 -84611-5 0  9994,2 53544  53.2162 148.4802 0001336  88.3952 271.7193 15.08840614 36755,6917.879,95.438,540.668,538.819,0.0
53544.0,STARLINK-4303,PAYLOAD,2023-04-13 14:07:48,15.08844476,0.0001327,53.2162,147.5881,87.8539,272.2605,2.6522e-05,1.34e-06,0.0,0 STARLINK-4303,1 53544U 22101T   23103.58875540  .00000134  00000-0  26522-4 0  9997,2 53544  53.2162 147.5881 0001327  87.8539 272.2605 15.08844476 36111,6917.867,95.437,540.65,538.814,0.0
53544.0,STARLINK-4303,PAYLOAD,2023-04-14 09:12:26,15.08843477,0.0001367,53.2167,144.0192,93.7575,266.3573,0.00012336,1.676e-05,0.0,0 STARLINK-4303,1 53544U 22101T   23104.38363448  .00001676  00000-0  12336-3 0  9994,2 53544  53.2167 144.0192 0001367  93.7575 266.3573 15.08843477 36234,6917.87,95.437,540.68,538.789,0.0
53544.0,STARLINK-4303,PAYLOAD,2023-04-15 09:03:13,15.08842552,0.0001301,53.2158,139.5603,84.594,275.5201,4.3949e-05,4.12e-06,0.0,0 STARLINK-4303,1 53544U 22101T   23105.37723873  .00000412  00000-0  43949-4 0  9998,2 53544  53.2158 139.5603 0001301  84.5940 275.5201 15.08842552 37056,6917.873,95.437,540.638,538.838,0.0
53544.0,STARLINK-4303,PAYLOAD,2023-04-16 07:18:37,15.08840138,0.0001401,53.2159,135.3957,94.0542,266.0611,1.1035e-05,-1.12e-06,0.0,0 STARLINK-4303,1 53544U 22101T   23106.30460076 -.00000112  00000-0  11035-4 0  9994,2 53544  53.2159 135.3957 0001401  94.0542 266.0611 15.08840138 37191,6917.88,95.438,540.714,538.776,0.0
53544.0,STARLINK-4303,PAYLOAD,2023-04-16 18:26:19,15.08837619,0.0001381,53.2165,133.315,92.462,267.6531,2.6521e-05,1.34e-06,0.0,0 STARLINK-4303,1 53544U 22101T   23106.76828240  .00000134  00000-0  26521-4 0  9994,2 53544  53.2165 133.3150 0001381  92.4620 267.6531 15.08837619 37263,6917.888,95.438,540.708,538.797,0.0
53544.0,STARLINK-4303,PAYLOAD,2023-04-17 08:44:48,15.08832522,0.000143,53.2171,130.6387,96.6029,263.5126,3.6508e-06,-2.3e-06,0.0,0 STARLINK-4303,1 53544U 22101T   23107.36444815 -.00000230  00000-0  36508-5 0  9998,2 53544  53.2171 130.6387 0001430  96.6029 263.5126 15.08832522 37359,6917.903,95.438,540.758,538.779,0.0
53544.0,STARLINK-4303,PAYLOAD,2023-04-17 18:17:07,15.0883531,0.0001405,53.2177,128.855,93.1366,266.9787,4.3493e-05,4.04e-06,0.0,0 STARLINK-4303,1 53544U 22101T   23107.76188679  .00000404  00000-0  43493-4 0  9997,2 53544  53.2177 128.8550 0001405  93.1366 266.9787 15.08835310 37419,6917.895,95.438,540.732,538.788,0.0
53544.0,STARLINK-4303,PAYLOAD,2023-04-18 07:00:11,15.08841249,0.0001342,53.2174,126.4755,91.0686,269.046,8.4056e-05,1.05e-05,0.0,0 STARLINK-4303,1 53544U 22101T   23108.29180269  .00001050  00000-0  84056-4 0  9991,2 53544  53.2174 126.4755 0001342  91.0686 269.0460 15.08841249 36823,6917.877,95.437,540.67,538.813,0.0
53544.0,STARLINK-4303,PAYLOAD,2023-04-18 08:35:34,15.08842202,0.000134,53.2174,126.1782,90.614,269.5006,9.1139e-05,1.163e-05,0.0,0 STARLINK-4303,1 53544U 22101T   23108.35804192  .00001163  00000-0  91139-4 0  9991,2 53544  53.2174 126.1782 0001340  90.6140 269.5006 15.08842202 37505,6917.874,95.437,540.666,538.812,0.0
53544.0,STARLINK-4303,PAYLOAD,2023-04-18 18:07:53,15.08838389,0.0001307,53.2176,124.3943,91.6076,268.5066,7.1145e-05,8.45e-06,0.0,0 STARLINK-4303,1 53544U 22101T   23108.75548501  .00000845  00000-0  71145-4 0  9995,2 53544  53.2176 124.3943 0001307  91.6076 268.5066 15.08838389 37560,6917.885,95.438,540.654,538.846,0.0
53544.0,STARLINK-4303,PAYLOAD,2023-04-19 02:04:49,15.08834163,0.0001305,53.2177,122.9071,91.7027,268.4115,8.1102e-05,1.003e-05,0.0,0 STARLINK-4303,1 53544U 22101T   23109.08668838  .00001003  00000-0  81102-4 0  9999,2 53544  53.2177 122.9071 0001305  91.7027 268.4115 15.08834163 36943,6917.898,95.438,540.666,538.86,0.0
53544.0,STARLINK-4303,PAYLOAD,2023-04-19 10:01:45,15.08839214,0.0001302,53.2172,121.4197,90.6709,269.4432,9.5093e-05,1.226e-05,0.0,0 STARLINK-4303,1 53544U 22101T   23109.41788599  .00001226  00000-0  95093-4 0  9994,2 53544  53.2172 121.4197 0001302  90.6709 269.4432 15.08839214 37668,6917.883,95.438,540.648,538.847,0.0
53544.0,STARLINK-4303,PAYLOAD,2023-04-19 17:58:41,15.08838304,0.0001307,53.2172,119.933,89.8914,270.2228,6.0782e-05,6.8e-06,0.0,0 STARLINK-4303,1 53544U 22101T   23109.74908774  .00000680  00000-0  60782-4 0  9999,2 53544  53.2172 119.9330 0001307  89.8914 270.2228 15.08838304 37710,6917.886,95.438,540.655,538.846,0.0
53544.0,STARLINK-4303,PAYLOAD,2023-04-20 06:41:46,15.08841882,0.0001374,53.217,117.5543,88.0023,272.1127,2.7013e-05,1.42e-06,0.0,0 STARLINK-4303,1 53544U 22101T   23110.27900661  .00000142  00000-0  27013-4 0  9999,2 53544  53.2170 117.5543 0001374  88.0023 272.1127 15.08841882 37123,6917.875,95.437,540.69,538.789,0.0
53544.0,STARLINK-4303,PAYLOAD,2023-04-20 08:17:09,15.0884213,0.0001349,53.2169,117.2569,91.2466,268.8681,3.5711e-05,2.81e-06,0.0,0 STARLINK-4303,1 53544U 22101T   23110.34524590  .00000281  00000-0  35711-4 0  9998,2 53544  53.2169 117.2569 0001349  91.2466 268.8681 15.08842130 37804,6917.874,95.437,540.672,538.806,0.0
